{
  "type": "FeatureCollection",
  "features": [
    {
      "type": "Feature",
      "properties": {
        "norad_id": 33738,
        "name": "FENGYUN 1C DEB",
        "group": "fengyun-1c-debris",
        "lat": -68.1550677283824,
        "lon": 84.38416731593463,
        "alt_km": 820.7092865397317,
        "timestamp": "2025-12-26T15:29:39.726493+00:00",
        "meta_object_name": "FENGYUN 1C DEB",
        "meta_object_id": "1999-025DJB",
        "meta_epoch": "2025-12-24T23:29:13.428096",
        "meta_mean_motion": 13.99552043,
        "meta_eccentricity": 0.018443,
        "meta_inclination": 99.1502,
        "meta_ra_of_asc_node": 59.0114,
        "meta_arg_of_pericenter": 347.7963,
        "meta_mean_anomaly": 189.5745,
        "meta_ephemeris_type": 0,
        "meta_classification_type": "U",
        "meta_norad_cat_id": 33738,
        "meta_element_set_no": 999,
        "meta_rev_at_epoch": 89407,
        "meta_bstar": 0.0005531895,
        "meta_mean_motion_dot": 8.89e-06,
        "meta_mean_motion_ddot": 0,
        "tle_line1": "1 33738U 99025DJB 25358.97862764  .00000889  00000+0  55319-3 0  9991",
        "tle_line2": "2 33738  99.1502  59.0114 0184430 347.7963 189.5745 13.99552043894079"
      },
      "geometry": {
        "type": "Point",
        "coordinates": [
          84.38416731593463,
          -68.1550677283824
        ]
      }
    },
    {
      "type": "Feature",
      "properties": {
        "norad_id": 33740,
        "name": "FENGYUN 1C DEB",
        "group": "fengyun-1c-debris",
        "lat": -66.90900913383814,
        "lon": 172.11549254188574,
        "alt_km": 860.0085662614019,
        "timestamp": "2025-12-26T15:29:39.726504+00:00",
        "meta_object_name": "FENGYUN 1C DEB",
        "meta_object_id": "1999-025DJD",
        "meta_epoch": "2025-12-23T18:18:38.373696",
        "meta_mean_motion": 14.12328382,
        "meta_eccentricity": 0.00022971,
        "meta_inclination": 98.6867,
        "meta_ra_of_asc_node": 10.3348,
        "meta_arg_of_pericenter": 110.3386,
        "meta_mean_anomaly": 249.8034,
        "meta_ephemeris_type": 0,
        "meta_classification_type": "U",
        "meta_norad_cat_id": 33740,
        "meta_element_set_no": 999,
        "meta_rev_at_epoch": 90302,
        "meta_bstar": 0.00013863115,
        "meta_mean_motion_dot": 2.13e-06,
        "meta_mean_motion_ddot": 0,
        "tle_line1": "1 33740U 99025DJD 25357.76294414  .00000213  00000+0  13863-3 0  9990",
        "tle_line2": "2 33740  98.6867  10.3348 0002297 110.3386 249.8034 14.12328382903022"
      },
      "geometry": {
        "type": "Point",
        "coordinates": [
          172.11549254188574,
          -66.90900913383814
        ]
      }
    },
    {
      "type": "Feature",
      "properties": {
        "norad_id": 33741,
        "name": "FENGYUN 1C DEB",
        "group": "fengyun-1c-debris",
        "lat": 14.1370147980156,
        "lon": 95.75421981577215,
        "alt_km": 901.2606226274274,
        "timestamp": "2025-12-26T15:29:39.726514+00:00",
        "meta_object_name": "FENGYUN 1C DEB",
        "meta_object_id": "1999-025DJE",
        "meta_epoch": "2025-12-25T13:10:32.197728",
        "meta_mean_motion": 14.09915746,
        "meta_eccentricity": 0.0128978,
        "meta_inclination": 98.5644,
        "meta_ra_of_asc_node": 272.5349,
        "meta_arg_of_pericenter": 52.1735,
        "meta_mean_anomaly": 309.1029,
        "meta_ephemeris_type": 0,
        "meta_classification_type": "U",
        "meta_norad_cat_id": 33741,
        "meta_element_set_no": 999,
        "meta_rev_at_epoch": 57043,
        "meta_bstar": 0.0026249,
        "meta_mean_motion_dot": 4.956e-05,
        "meta_mean_motion_ddot": 0,
        "tle_line1": "1 33741U 99025DJE 25359.54898377  .00004956  00000+0  26249-2 0  9996",
        "tle_line2": "2 33741  98.5644 272.5349 0128978  52.1735 309.1029 14.09915746570435"
      },
      "geometry": {
        "type": "Point",
        "coordinates": [
          95.75421981577215,
          14.1370147980156
        ]
      }
    },
    {
      "type": "Feature",
      "properties": {
        "norad_id": 33745,
        "name": "FENGYUN 1C DEB",
        "group": "fengyun-1c-debris",
        "lat": 67.6250840427407,
        "lon": 15.32359777330852,
        "alt_km": 846.7746558063154,
        "timestamp": "2025-12-26T15:29:39.726524+00:00",
        "meta_object_name": "FENGYUN 1C DEB",
        "meta_object_id": "1999-025DJJ",
        "meta_epoch": "2025-12-23T01:03:53.032320",
        "meta_mean_motion": 14.22376076,
        "meta_eccentricity": 0.00546159,
        "meta_inclination": 99.1138,
        "meta_ra_of_asc_node": 34.553,
        "meta_arg_of_pericenter": 236.8105,
        "meta_mean_anomaly": 122.7827,
        "meta_ephemeris_type": 0,
        "meta_classification_type": "U",
        "meta_norad_cat_id": 33745,
        "meta_element_set_no": 999,
        "meta_rev_at_epoch": 66148,
        "meta_bstar": 0.0013268717,
        "meta_mean_motion_dot": 2.951e-05,
        "meta_mean_motion_ddot": 0,
        "tle_line1": "1 33745U 99025DJJ 25357.04436380  .00002951  00000+0  13269-2 0  9996",
        "tle_line2": "2 33745  99.1138  34.5530 0054615 236.8105 122.7827 14.22376076661483"
      },
      "geometry": {
        "type": "Point",
        "coordinates": [
          15.32359777330852,
          67.6250840427407
        ]
      }
    },
    {
      "type": "Feature",
      "properties": {
        "norad_id": 33747,
        "name": "FENGYUN 1C DEB",
        "group": "fengyun-1c-debris",
        "lat": 75.5735699706207,
        "lon": -45.83577661262616,
        "alt_km": 811.7899925806487,
        "timestamp": "2025-12-26T15:29:39.726534+00:00",
        "meta_object_name": "FENGYUN 1C DEB",
        "meta_object_id": "1999-025DJL",
        "meta_epoch": "2025-12-25T00:03:06.904800",
        "meta_mean_motion": 14.17556919,
        "meta_eccentricity": 0.00908401,
        "meta_inclination": 99.0948,
        "meta_ra_of_asc_node": 93.9706,
        "meta_arg_of_pericenter": 183.5383,
        "meta_mean_anomaly": 176.5159,
        "meta_ephemeris_type": 0,
        "meta_classification_type": "U",
        "meta_norad_cat_id": 33747,
        "meta_element_set_no": 999,
        "meta_rev_at_epoch": 90306,
        "meta_bstar": 0.0026785153,
        "meta_mean_motion_dot": 5.622e-05,
        "meta_mean_motion_ddot": 0,
        "tle_line1": "1 33747U 99025DJL 25359.00216325  .00005622  00000+0  26785-2 0  9996",
        "tle_line2": "2 33747  99.0948  93.9706 0090840 183.5383 176.5159 14.17556919903061"
      },
      "geometry": {
        "type": "Point",
        "coordinates": [
          -45.83577661262616,
          75.5735699706207
        ]
      }
    },
    {
      "type": "Feature",
      "properties": {
        "norad_id": 33748,
        "name": "FENGYUN 1C DEB",
        "group": "fengyun-1c-debris",
        "lat": 38.656604382695456,
        "lon": -121.39925203430839,
        "alt_km": 767.9754361672494,
        "timestamp": "2025-12-26T15:29:39.726544+00:00",
        "meta_object_name": "FENGYUN 1C DEB",
        "meta_object_id": "1999-025DJM",
        "meta_epoch": "2025-12-20T21:21:40.065984",
        "meta_mean_motion": 14.32332217,
        "meta_eccentricity": 0.0034916,
        "meta_inclination": 98.5853,
        "meta_ra_of_asc_node": 45.9627,
        "meta_arg_of_pericenter": 216.6923,
        "meta_mean_anomaly": 143.1869,
        "meta_ephemeris_type": 0,
        "meta_classification_type": "U",
        "meta_norad_cat_id": 33748,
        "meta_element_set_no": 999,
        "meta_rev_at_epoch": 91510,
        "meta_bstar": 0.00084448,
        "meta_mean_motion_dot": 2.253e-05,
        "meta_mean_motion_ddot": 0,
        "tle_line1": "1 33748U 99025DJM 25354.89004706  .00002253  00000+0  84448-3 0  9995",
        "tle_line2": "2 33748  98.5853  45.9627 0034916 216.6923 143.1869 14.32332217915106"
      },
      "geometry": {
        "type": "Point",
        "coordinates": [
          -121.39925203430839,
          38.656604382695456
        ]
      }
    },
    {
      "type": "Feature",
      "properties": {
        "norad_id": 35088,
        "name": "FENGYUN 1C DEB",
        "group": "fengyun-1c-debris",
        "lat": -71.70131709863874,
        "lon": -176.3290386313031,
        "alt_km": 972.8587259009546,
        "timestamp": "2025-12-26T15:29:39.726554+00:00",
        "meta_object_name": "FENGYUN 1C DEB",
        "meta_object_id": "1999-025DJQ",
        "meta_epoch": "2025-12-20T06:48:25.112736",
        "meta_mean_motion": 14.12178698,
        "meta_eccentricity": 0.02665925,
        "meta_inclination": 94.6216,
        "meta_ra_of_asc_node": 166.2192,
        "meta_arg_of_pericenter": 179.9936,
        "meta_mean_anomaly": 180.1297,
        "meta_ephemeris_type": 0,
        "meta_classification_type": "U",
        "meta_norad_cat_id": 35088,
        "meta_element_set_no": 999,
        "meta_rev_at_epoch": 58906,
        "meta_bstar": 0.004541836,
        "meta_mean_motion_dot": 0.00011675,
        "meta_mean_motion_ddot": 0,
        "tle_line1": "1 35088U 99025DJQ 25354.28362399  .00011675  00000+0  45418-2 0  9993",
        "tle_line2": "2 35088  94.6216 166.2192 0266592 179.9936 180.1297 14.12178698589068"
      },
      "geometry": {
        "type": "Point",
        "coordinates": [
          -176.3290386313031,
          -71.70131709863874
        ]
      }
    }
  ]
}